STARLINK-35990          
1 66792U 25278B   25345.25003472 -.01012359  00000+0 -35451-2 0  9998
2 66792  42.9979 261.3571 0001932 275.2628 219.1601 15.90516714  2713
STARLINK-36051          
1 66793U 25278C   25345.25003472 -.01024187  00000+0 -35764-2 0  9998
2 66793  42.9982 261.3446 0001866 274.2229 225.1298 15.90598546  2612
STARLINK-36062          
1 66794U 25278D   25345.25003472 -.01013434  00000+0 -35422-2 0  9993
2 66794  42.9981 261.3499 0001916 275.0597 222.1922 15.90555361  2713
STARLINK-36047          
1 66795U 25278E   25345.25003472 -.01032909  00000+0 -36020-2 0  9997
2 66795  42.9982 261.3379 0001805 270.4686 231.4899 15.90644491  2615
STARLINK-35964          
1 66796U 25278F   25345.25003472 -.01304302  56325-3 -18240-2 0  9996
2 66796  42.9959 260.7295 0001955 268.0928 112.6953 16.04991979  2554
STARLINK-36099          
1 66797U 25278G   25345.25003472 -.01043901  00000+0 -36293-2 0  9995
2 66797  42.9981 261.3245 0001913 273.0431 234.2162 15.90726445  2776
STARLINK-36041          
1 66798U 25278H   25345.25003472 -.01043620  00000+0 -36212-2 0  9995
2 66798  42.9982 261.3195 0001916 273.1491 236.0411 15.90763977  2556
STARLINK-36044          
1 66799U 25278J   25345.25003472 -.01056145  00000+0 -36614-2 0  9998
2 66799  42.9980 261.3141 0001868 274.1176 237.2613 15.90809541  2716
STARLINK-35996          
1 66800U 25278K   25345.25003472 -.01072078  00000+0 -37073-2 0  9994
2 66800  42.9980 261.3028 0001932 273.2044 242.5379 15.90893355  2500
STARLINK-36080          
1 66801U 25278L   25345.25003472 -.01304774  48729-3 -39772-2 0  9998
2 66801  42.9979 261.2748 0001887 274.3753 252.2721 15.91114848  2711
STARLINK-35604          
1 66802U 25278M   25345.25003472 -.01052686  00000+0 -36413-2 0  9996
2 66802  42.9982 261.3090 0001879 274.1500 239.2084 15.90844371  2713
STARLINK-35565          
1 66803U 25278N   25345.25003472 -.01077970  00000+0 -37225-2 0  9992
2 66803  42.9981 261.2979 0001887 273.0794 244.6455 15.90933644  2804
STARLINK-36038          
1 66804U 25278P   25345.25003472 -.01109667  00000+0 -38354-2 0  9996
2 66804  42.9983 261.2919 0001859 274.7983 245.4063 15.90989008  2717
STARLINK-36049          
1 66805U 25278Q   25345.25003472 -.01133803  00000+0 -39133-2 0  9992
2 66805  42.9981 261.2808 0001846 276.6450 247.8187 15.91071053  2715
STARLINK-36069          
1 66806U 25278R   25345.25003472 -.01114447  00000+0 -38467-2 0  9995
2 66806  42.9983 261.2871 0001855 276.3365 245.7247 15.91026001  2504
STARLINK-36000          
1 66807U 25278S   25345.25003472 -.01332051  50632-3 -40520-2 0  9992
2 66807  42.9982 261.2700 0001893 273.8355 254.9972 15.91159204  2776
STARLINK-36071          
1 66808U 25278T   25345.25003472 -.01379498  54010-3 -41870-2 0  9992
2 66808  42.9981 261.2646 0001768 270.1621 260.7377 15.91210044  2710
STARLINK-35979          
1 66809U 25278U   25345.25003472 -.01367652  53206-3 -41327-2 0  9995
2 66809  42.9981 261.2460 0001863 273.0923 265.1206 15.91293982  2710
STARLINK-36046          
1 66810U 25278V   25345.25003472 -.01361384  52729-3 -41267-2 0  9995
2 66810  42.9983 261.2585 0001828 271.5678 261.8263 15.91232103  2481
STARLINK-36045          
1 66811U 25278W   25345.25003472 -.01372926  53569-3 -41545-2 0  9992
2 66811  42.9984 261.2521 0001803 274.6982 261.2240 15.91267503  2715
STARLINK-36054          
1 66812U 25278X   25345.25003472 -.01381515  54217-3 -41674-2 0  9991
2 66812  42.9984 261.2411 0001788 274.0245 266.1911 15.91329675  2710
STARLINK-36042          
1 66813U 25278Y   25345.25003472 -.01383170  54353-3 -41654-2 0  9990
2 66813  42.9984 261.2362 0001839 272.8788 269.1765 15.91362308  2711
STARLINK-35984          
1 66814U 25278Z   25345.25003472 -.01437314  58415-3 -42911-2 0  9991
2 66814  42.9981 261.1979 0001728 271.7072 285.4110 15.91538635  2806
STARLINK-35985          
1 66815U 25278AA  25345.25003472 -.01428536  57741-3 -42731-2 0  9999
2 66815  42.9979 261.2028 0001820 270.8227 284.3469 15.91499729  2800
STARLINK-36098          
1 66816U 25278AB  25345.25003472 -.01390561  54904-3 -41806-2 0  9996
2 66816  42.9983 261.2307 0001723 272.4304 271.8764 15.91396343  2551
STARLINK-35995          
1 66817U 25278AC  25345.25003472 -.01409325  56305-3 -42233-2 0  9998
2 66817  42.9983 261.2179 0001767 271.2751 278.0261 15.91461895  2714
STARLINK-35994          
1 66818U 25278AD  25345.25003472 -.01402974  55823-3 -42114-2 0  9994
2 66818  42.9983 261.2236 0001691 269.0942 278.0316 15.91428550  2714
STARLINK-35989          
1 66819U 25278AE  25345.25003472 -.01417211  56904-3 -42392-2 0  9994
2 66819  42.9984 261.2124 0001751 270.4276 281.0656 15.91498455  2717
KOMPSAT-7               
1 66820U 25279A   25345.00679061  .00004280  00000+0  36089-3 0  9997
2 66820  97.6407 290.9079 0008198 224.9199 135.1362 14.98662486  1393
STARLINK-35966          
1 66821U 25280A   25344.66668981 -.01557078  00000+0 -67613-2 0  9997
2 66821  69.9939 204.7907 0003913 271.1294 158.5043 15.87163122  2566
STARLINK-35958          
1 66822U 25280B   25344.66668981 -.01558020  00000+0 -67524-2 0  9997
2 66822  69.9939 204.7890 0003914 271.5252 159.7958 15.87203288  2563
STARLINK-35957          
1 66823U 25280C   25344.66668981 -.01561515  00000+0 -67558-2 0  9998
2 66823  69.9938 204.7867 0003928 271.3861 161.7087 15.87244205  2566
STARLINK-35896          
1 66824U 25280D   25344.75002315 -.01595429  00000+0 -70024-2 0  9995
2 66824  69.9936 204.5440 0003777 269.0036 281.9492 15.87016307  2587
STARLINK-35476          
1 66825U 25280E   25344.75002315 -.01601430  00000+0 -70194-2 0  9994
2 66825  69.9936 204.5418 0003729 270.4103 282.4783 15.87054454  2439
STARLINK-35898          
1 66826U 25280F   25344.75002315 -.01602116  00000+0 -70080-2 0  9991
2 66826  69.9935 204.5397 0003795 269.5275 284.9348 15.87096157  2583
STARLINK-35959          
1 66827U 25280G   25344.75002315 -.01609866  00000+0 -70318-2 0  9995
2 66827  69.9933 204.5376 0003795 269.3010 287.0125 15.87138781  2581
STARLINK-35982          
1 66828U 25280H   25344.75002315 -.01620676  00000+0 -70591-2 0  9991
2 66828  69.9934 204.5330 0003751 270.7247 289.5054 15.87215168  2586
STARLINK-36084          
1 66829U 25280J   25344.75002315 -.01615030  00000+0 -70441-2 0  9994
2 66829  69.9933 204.5351 0003810 271.3474 286.9189 15.87176966  2429
STARLINK-35881          
1 66830U 25280K   25344.75002315 -.01628378  00000+0 -70807-2 0  9991
2 66830  69.9930 204.5307 0003676 269.9668 291.7888 15.87264190  2581
STARLINK-35788          
1 66831U 25280L   25344.75002315 -.01630974  00000+0 -70780-2 0  9997
2 66831  69.9937 204.5293 0003769 268.9515 294.3620 15.87306963  2584
STARLINK-35768          
1 66832U 25280M   25344.75002315 -.01630187  00000+0 -70597-2 0  9990
2 66832  69.9933 204.5270 0003748 270.0502 294.7800 15.87348269  2582
STARLINK-35858          
1 66833U 25280N   25344.75002315 -.01636461  00000+0 -70772-2 0  9997
2 66833  69.9935 204.5250 0003729 270.7614 296.0612 15.87387192  2587
STARLINK-35840          
1 66834U 25280P   25344.75002315 -.01641469  00000+0 -70856-2 0  9995
2 66834  69.9932 204.5228 0003772 270.3164 298.0805 15.87432671  2583
STARLINK-35890          
1 66835U 25280Q   25344.75002315 -.01648284  00000+0 -71042-2 0  9996
2 66835  69.9930 204.5206 0003721 269.9277 300.2566 15.87476114  2581
STARLINK-35838          
1 66836U 25280R   25344.75002315 -.01656757  00000+0 -71306-2 0  9994
2 66836  69.9928 204.5182 0003710 269.3013 302.7614 15.87519795  2586
STARLINK-35729          
1 66837U 25280S   25344.75002315 -.01661686  00000+0 -71396-2 0  9991
2 66837  69.9927 204.5159 0003820 266.7119 307.1782 15.87561134  2589
STARLINK-35886          
1 66838U 25280T   25344.75002315 -.01671531  00000+0 -71577-2 0  9993
2 66838  69.9926 204.5117 0003690 267.7878 309.5468 15.87648363  2588
STARLINK-35717          
1 66839U 25280U   25344.75002315 -.01660629  00000+0 -71206-2 0  9999
2 66839  69.9927 204.5137 0003768 269.5917 305.9288 15.87600798  2582
STARLINK-35837          
1 66840U 25280V   25344.75002315 -.01676267  00000+0 -71656-2 0  9995
2 66840  69.9929 204.5098 0003714 268.0290 311.0661 15.87691104  2585
STARLINK-35715          
1 66841U 25280W   25344.75002315 -.01680956  00000+0 -71733-2 0  9992
2 66841  69.9927 204.5074 0003766 268.1486 312.7726 15.87733027  2584
STARLINK-35769          
1 66842U 25280X   25344.75002315 -.01683694  00000+0 -71714-2 0  9994
2 66842  69.9928 204.5056 0003711 269.4344 313.1315 15.87776553  2583
STARLINK-35997          
1 66843U 25280Y   25344.75002315 -.01694070  00000+0 -71908-2 0  9990
2 66843  69.9924 204.5010 0003730 268.9655 317.1531 15.87863546  2583
STARLINK-36073          
1 66844U 25280Z   25344.75002315 -.01691191  00000+0 -71928-2 0  9994
2 66844  69.9926 204.5030 0003729 269.5704 314.9537 15.87818843  2589
STARLINK-36068          
1 66845U 25280AA  25344.75002315 -.01705839  00000+0 -72002-2 0  9994
2 66845  69.9924 204.4949 0003800 268.3551 322.8945 15.87995314  2583
STARLINK-36055          
1 66846U 25280AB  25344.75002315 -.01701487  00000+0 -72117-2 0  9997
2 66846  69.9925 204.4985 0003748 269.1010 319.0072 15.87905661  2580
STARLINK-36061          
1 66847U 25280AC  25344.75002315 -.01703472  00000+0 -72049-2 0  9998
2 66847  69.9924 204.4971 0003761 269.5352 320.0966 15.87951104  2535
STARLINK-36091          
1 66848U 25281A   25344.66668981 -.00965288  29244-3 -23664-2 0  9995
2 66848  43.0014 135.3114 0001692 280.9350 204.3448 15.95185766  2469
STARLINK-36102          
1 66849U 25281B   25344.66668981 -.00966596  29334-3 -23618-2 0  9998
2 66849  43.0015 135.3060 0001605 279.0783 208.0732 15.95247309  2463
STARLINK-36105          
1 66850U 25281C   25344.66668981 -.00967539  29414-3 -23522-2 0  9991
2 66850  43.0013 135.3001 0001563 273.8690 215.7585 15.95340432  2462
